{
  "type": "FeatureCollection",
  "features": [
    {
      "type": "Feature",
      "properties": {
        "norad_id": 44793,
        "name": "BEIDOU-3 M22 (C44)",
        "group": "beidou",
        "lat": 42.0676802549247,
        "lon": -12.647564315236089,
        "alt_km": 21509.473992441002,
        "timestamp": "2025-12-06T09:34:17.179279+00:00",
        "meta_object_name": "BEIDOU-3 M22 (C44)",
        "meta_object_id": "2019-078A",
        "meta_epoch": "2025-12-05T05:48:12.053952",
        "meta_mean_motion": 1.86231816,
        "meta_eccentricity": 0.00057288,
        "meta_inclination": 54.1154,
        "meta_ra_of_asc_node": 306.6493,
        "meta_arg_of_pericenter": 22.8633,
        "meta_mean_anomaly": 337.1445,
        "meta_ephemeris_type": 0,
        "meta_classification_type": "U",
        "meta_norad_cat_id": 44793,
        "meta_element_set_no": 999,
        "meta_rev_at_epoch": 4103,
        "meta_bstar": 0,
        "meta_mean_motion_dot": -6.9e-07,
        "meta_mean_motion_ddot": 0,
        "tle_line1": "1 44793U 19078A   25339.24180618 -.00000069  00000+0  00000+0 0  9998",
        "tle_line2": "2 44793  54.1154 306.6493 0005728  22.8633 337.1445  1.86231816 41037"
      },
      "geometry": {
        "type": "Point",
        "coordinates": [
          -12.647564315236089,
          42.0676802549247
        ]
      }
    },
    {
      "type": "Feature",
      "properties": {
        "norad_id": 44794,
        "name": "BEIDOU-3 M21 (C43)",
        "group": "beidou",
        "lat": -28.806235668613617,
        "lon": -76.91753740659956,
        "alt_km": 21524.564676050453,
        "timestamp": "2025-12-06T09:34:17.179290+00:00",
        "meta_object_name": "BEIDOU-3 M21 (C43)",
        "meta_object_id": "2019-078B",
        "meta_epoch": "2025-12-04T20:12:58.830048",
        "meta_mean_motion": 1.86227548,
        "meta_eccentricity": 0.00039788,
        "meta_inclination": 54.0888,
        "meta_ra_of_asc_node": 306.6286,
        "meta_arg_of_pericenter": 10.942,
        "meta_mean_anomaly": 349.0489,
        "meta_ephemeris_type": 0,
        "meta_classification_type": "U",
        "meta_norad_cat_id": 44794,
        "meta_element_set_no": 999,
        "meta_rev_at_epoch": 4103,
        "meta_bstar": 0,
        "meta_mean_motion_dot": -6.9e-07,
        "meta_mean_motion_ddot": 0,
        "tle_line1": "1 44794U 19078B   25338.84234757 -.00000069  00000+0  00000+0 0  9998",
        "tle_line2": "2 44794  54.0888 306.6286 0003978  10.9420 349.0489  1.86227548 41035"
      },
      "geometry": {
        "type": "Point",
        "coordinates": [
          -76.91753740659956,
          -28.806235668613617
        ]
      }
    },
    {
      "type": "Feature",
      "properties": {
        "norad_id": 44864,
        "name": "BEIDOU-3 M19 (C41)",
        "group": "beidou",
        "lat": 17.30886075235719,
        "lon": -122.76353084485108,
        "alt_km": 21554.69212195324,
        "timestamp": "2025-12-06T09:34:17.179301+00:00",
        "meta_object_name": "BEIDOU-3 M19 (C41)",
        "meta_object_id": "2019-090A",
        "meta_epoch": "2025-12-02T22:27:31.551840",
        "meta_mean_motion": 1.86231053,
        "meta_eccentricity": 0.00175607,
        "meta_inclination": 56.3847,
        "meta_ra_of_asc_node": 69.2872,
        "meta_arg_of_pericenter": 284.9296,
        "meta_mean_anomaly": 72.494,
        "meta_ephemeris_type": 0,
        "meta_classification_type": "U",
        "meta_norad_cat_id": 44864,
        "meta_element_set_no": 999,
        "meta_rev_at_epoch": 4057,
        "meta_bstar": 0,
        "meta_mean_motion_dot": -4.9e-07,
        "meta_mean_motion_ddot": 0,
        "tle_line1": "1 44864U 19090A   25336.93578185 -.00000049  00000+0  00000+0 0  9992",
        "tle_line2": "2 44864  56.3847  69.2872 0017560 284.9296  72.4940  1.86231053 40575"
      },
      "geometry": {
        "type": "Point",
        "coordinates": [
          -122.76353084485108,
          17.30886075235719
        ]
      }
    },
    {
      "type": "Feature",
      "properties": {
        "norad_id": 44865,
        "name": "BEIDOU-3 M20 (C42)",
        "group": "beidou",
        "lat": -50.91448963410414,
        "lon": -55.946959205098274,
        "alt_km": 21506.81195310412,
        "timestamp": "2025-12-06T09:34:17.179313+00:00",
        "meta_object_name": "BEIDOU-3 M20 (C42)",
        "meta_object_id": "2019-090B",
        "meta_epoch": "2025-12-03T10:37:23.867040",
        "meta_mean_motion": 1.86231029,
        "meta_eccentricity": 0.00147135,
        "meta_inclination": 56.3867,
        "meta_ra_of_asc_node": 69.3045,
        "meta_arg_of_pericenter": 297.7194,
        "meta_mean_anomaly": 129.1388,
        "meta_ephemeris_type": 0,
        "meta_classification_type": "U",
        "meta_norad_cat_id": 44865,
        "meta_element_set_no": 999,
        "meta_rev_at_epoch": 4057,
        "meta_bstar": 0,
        "meta_mean_motion_dot": -5e-07,
        "meta_mean_motion_ddot": 0,
        "tle_line1": "1 44865U 19090B   25337.44263735 -.00000050  00000+0  00000+0 0  9994",
        "tle_line2": "2 44865  56.3867  69.3045 0014713 297.7194 129.1388  1.86231029 40576"
      },
      "geometry": {
        "type": "Point",
        "coordinates": [
          -55.946959205098274,
          -50.91448963410414
        ]
      }
    },
    {
      "type": "Feature",
      "properties": {
        "norad_id": 45344,
        "name": "BEIDOU-3 G2 (C60)",
        "group": "beidou",
        "lat": -2.4177883782376712,
        "lon": -61.0701933915099,
        "alt_km": 35766.632199489395,
        "timestamp": "2025-12-06T09:34:17.179325+00:00",
        "meta_object_name": "BEIDOU-3 G2 (C60)",
        "meta_object_id": "2020-017A",
        "meta_epoch": "2025-12-05T15:47:23.962272",
        "meta_mean_motion": 1.00262828,
        "meta_eccentricity": 0.00053913,
        "meta_inclination": 2.4835,
        "meta_ra_of_asc_node": 43.7472,
        "meta_arg_of_pericenter": 266.1366,
        "meta_mean_anomaly": 81.6514,
        "meta_ephemeris_type": 0,
        "meta_classification_type": "U",
        "meta_norad_cat_id": 45344,
        "meta_element_set_no": 999,
        "meta_rev_at_epoch": 2131,
        "meta_bstar": 0,
        "meta_mean_motion_dot": -1.29e-06,
        "meta_mean_motion_ddot": 0,
        "tle_line1": "1 45344U 20017A   25339.65791623 -.00000129  00000+0  00000+0 0  9992",
        "tle_line2": "2 45344   2.4835  43.7472 0005391 266.1366  81.6514  1.00262828 21310"
      },
      "geometry": {
        "type": "Point",
        "coordinates": [
          -61.0701933915099,
          -2.4177883782376712
        ]
      }
    },
    {
      "type": "Feature",
      "properties": {
        "norad_id": 45807,
        "name": "BEIDOU-3 G3 (C61)",
        "group": "beidou",
        "lat": -1.963157641127564,
        "lon": -30.58815540146997,
        "alt_km": 35771.98824077023,
        "timestamp": "2025-12-06T09:34:17.179336+00:00",
        "meta_object_name": "BEIDOU-3 G3 (C61)",
        "meta_object_id": "2020-040A",
        "meta_epoch": "2025-12-05T21:04:15.154752",
        "meta_mean_motion": 1.00265344,
        "meta_eccentricity": 0.000512,
        "meta_inclination": 1.9736,
        "meta_ra_of_asc_node": 66.5543,
        "meta_arg_of_pericenter": 303.6398,
        "meta_mean_anomaly": 131.2596,
        "meta_ephemeris_type": 0,
        "meta_classification_type": "U",
        "meta_norad_cat_id": 45807,
        "meta_element_set_no": 999,
        "meta_rev_at_epoch": 2013,
        "meta_bstar": 0,
        "meta_mean_motion_dot": -3.45e-06,
        "meta_mean_motion_ddot": 0,
        "tle_line1": "1 45807U 20040A   25339.87795318 -.00000345  00000+0  00000+0 0  9991",
        "tle_line2": "2 45807   1.9736  66.5543 0005120 303.6398 131.2596  1.00265344 20139"
      },
      "geometry": {
        "type": "Point",
        "coordinates": [
          -30.58815540146997,
          -1.963157641127564
        ]
      }
    },
    {
      "type": "Feature",
      "properties": {
        "norad_id": 56564,
        "name": "BEIDOU-3 G4 (C62)",
        "group": "beidou",
        "lat": 0.8288386984354124,
        "lon": 19.049029832174604,
        "alt_km": 35798.79155987701,
        "timestamp": "2025-12-06T09:34:17.179349+00:00",
        "meta_object_name": "BEIDOU-3 G4 (C62)",
        "meta_object_id": "2023-066A",
        "meta_epoch": "2025-12-05T21:18:21.305376",
        "meta_mean_motion": 1.00270929,
        "meta_eccentricity": 0.00032035,
        "meta_inclination": 0.8305,
        "meta_ra_of_asc_node": 301.476,
        "meta_arg_of_pericenter": 236.6642,
        "meta_mean_anomaly": 16.4531,
        "meta_ephemeris_type": 0,
        "meta_classification_type": "U",
        "meta_norad_cat_id": 56564,
        "meta_element_set_no": 999,
        "meta_rev_at_epoch": 945,
        "meta_bstar": 0,
        "meta_mean_motion_dot": -1.01e-06,
        "meta_mean_motion_ddot": 0,
        "tle_line1": "1 56564U 23066A   25339.88774659 -.00000101  00000+0  00000+0 0  9990",
        "tle_line2": "2 56564   0.8305 301.4760 0003203 236.6642  16.4531  1.00270929  9450"
      },
      "geometry": {
        "type": "Point",
        "coordinates": [
          19.049029832174604,
          0.8288386984354124
        ]
      }
    }
  ]
}